BEIDOU-3S IGSO-1S (C31) 
1 40549U 15019A   24189.78310247 -.00000172  00000+0  00000+0 0  9993
2 40549  50.5342 303.9491 0035698 193.2243 162.6097  1.00300923 33956
BEIDOU-3S M2S (C58)     
1 40748U 15037A   24188.93029024 -.00000106  00000+0  00000+0 0  9997
2 40748  55.4635 326.3644 0009250 245.2732 114.6197  1.86233292 60890
BEIDOU-3S M1S (C57)     
1 40749U 15037B   24187.59019290 -.00000110  00000+0  00000+0 0  9998
2 40749  55.4670 326.3960 0002626 348.4370  11.5426  1.86227603 60861
BEIDOU-3S IGSO-2S (C56) 
1 40938U 15053A   24188.62228248 -.00000108  00000+0  00000+0 0  9993
2 40938  50.3255 267.1784 0053453 190.7660 145.6164  1.00258192 32224
BEIDOU-2 IGSO-6 (C13)   
1 41434U 16021A   24190.06959209 -.00000153  00000+0  00000+0 0  9990
2 41434  59.2075  45.1342 0047899 222.0624 139.6299  1.00267431 30365
BEIDOU-2 G7 (C03)       
1 41586U 16037A   24189.79817795 -.00000358  00000+0  00000+0 0  9993
2 41586   1.9558  69.8978 0008586   2.3476 251.7474  1.00278389 29661
GSAT0203 (PRN E26)      
1 40544U 15017A   24188.85976533 -.00000101  00000+0  00000+0 0  9991
2 40544  56.9252   0.9325 0001630 246.0658 113.9215  1.70476147 57751
GSAT0204 (PRN E22)      
1 40545U 15017B   24187.94083979 -.00000101  00000+0  00000+0 0  9994
2 40545  56.9310   0.9730 0001971 210.0903 149.9044  1.70475764 57741
GSAT0205 (PRN E24)      
1 40889U 15045A   24185.94931345  .00000040  00000+0  00000+0 0  9994
2 40889  55.2098 241.3070 0002869  18.6742 341.4317  1.70473894 54858
GSAT0206 (PRN E30)      
1 40890U 15045B   24189.10288720  .00000030  00000+0  00000+0 0  9999
2 40890  55.2073 241.2153 0001167 354.8047   5.2893  1.70473934 54935
GSAT0209 (PRN E09)      
1 41174U 15079A   24188.68595814 -.00000023  00000+0  00000+0 0  9992
2 41174  55.4334 120.7795 0004681 322.8191  37.1117  1.70473923 52664
GSAT0208 (PRN E08)      
1 41175U 15079B   24189.49231383 -.00000018  00000+0  00000+0 0  9995
2 41175  55.4321 120.7551 0004193 321.4885  38.4505  1.70473961 53257
GSAT0211 (PRN E02)      
1 41549U 16030A   24187.85542124  .00000035  00000+0  00000+0 0  9992
2 41549  55.3561 241.2631 0003115 303.3769  56.6911  1.70473792 50520
GSAT0210 (PRN E01)      
1 41550U 16030B   24184.04059950  .00000038  00000+0  00000+0 0  9995
2 41550  55.3575 241.3690 0003090 263.9154  96.1363  1.70473957 50459
GSAT0207 (PRN E07)      
1 41859U 16069A   24185.46004696 -.00000027  00000+0  00000+0 0  9992
2 41859  55.0968 120.8655 0004999 306.8358  53.0708  1.70473881 47231
GSAT0212 (PRN E03)      
1 41860U 16069B   24189.42043311 -.00000019  00000+0  00000+0 0  9992
2 41860  55.0956 120.7521 0003837 335.1806  24.7690  1.70474109 47558
GSAT0213 (PRN E04)      
1 41861U 16069C   24187.44262849 -.00000028  00000+0  00000+0 0  9992
2 41861  55.0974 120.8136 0004804 289.8858  70.0186  1.70472777 47383
GSAT0214 (PRN E05)      
1 41862U 16069D   24188.76100390 -.00000023  00000+0  00000+0 0  9996
2 41862  55.0967 120.7707 0003918 294.7420  65.1808  1.70474113 47533
IRNSS-1D                
1 40547U 15018A   24188.52354245 -.00000264  00000+0  00000+0 0  9999
2 40547  27.4472 252.3734 0021775 193.8102 139.0399  1.00279858 33853
GSAT-15                 
1 41028U 15065A   24189.13910400 -.00000262  00000+0  00000+0 0  9993
2 41028   0.0138  92.5678 0003366   2.4459 334.1391  1.00272515 31683
IRNSS-1E                
1 41241U 16003A   24187.78548878 -.00000324  00000+0  00000+0 0  9997
2 41241  31.6723  73.2023 0018826 180.3464  65.1030  1.00266511 30947
IRNSS-1F                
1 41384U 16015A   24189.55628846  .00000153  00000+0  00000+0 0  9998
2 41384   3.6171 117.0238 0017975 183.0583 218.6055  1.00272940 30554
IRNSS-1G                
1 41469U 16027A   24189.57546581 -.00000341  00000+0  00000+0 0  9992
2 41469   3.4879 118.2390 0006756 339.5077 164.9374  1.00274082 30066
EUTELSAT 117 WEST B     
1 41589U 16038B   24189.66971561 -.00000015  00000+0  00000+0 0  9995
2 41589   0.0038 192.9656 0000183 260.9099 316.3362  1.00268422 29599
SES-15                  
1 42709U 17026A   24189.73891263  .00000057  00000+0  00000+0 0  9991
2 42709   0.0201  34.8418 0000137  41.3392 346.8497  1.00269184 27076
COSMOS 2501 (702K)      
1 40315U 14075A   24188.84212663  .00000059  00000+0  00000+0 0  9997
2 40315  63.6220 214.9927 0021013 211.4060 148.5323  2.13101503 74710
COSMOS 2514 (751)       
1 41330U 16008A   24187.88601910 -.00000086  00000+0  00000+0 0  9994
2 41330  65.3985 337.3092 0010415 200.5478 159.3999  2.13102677 65468
GPS BIIF-9  (PRN 26)    
1 40534U 15013A   24189.08119651  .00000031  00000+0  00000+0 0  9993
2 40534  53.3373 233.5729 0088093  29.7608 330.8203  2.00564362 67586
GPS BIIF-10 (PRN 08)    
1 40730U 15033A   24189.24302584 -.00000062  00000+0  00000+0 0  9995
2 40730  54.5780 296.2377 0094078  19.7804 340.6086  2.00566035 65755
GPS BIIF-11 (PRN 10)    
1 41019U 15062A   24188.80383966 -.00000065  00000+0  00000+0 0  9995
2 41019  56.4175  58.3279 0095543 224.8035 134.4851  2.00562548 63589
GPS BIIF-12 (PRN 32)    
1 41328U 16007A   24188.38563499 -.00000033  00000+0  00000+0 0  9997
2 41328  55.1332 117.6882 0079879 238.9231 120.2702  2.00561008 61586
